FLOCK 3P-51             
1 41952U 17008E   21037.35152047  .00001824  00000-0  71027-4 0  9993
2 41952  97.3383 107.4382 0007383 192.7024 167.4030 15.27235282221279
INS-1B                  
1 41954U 17008G   21037.44547550  .00001586  00000-0  65190-4 0  9991
2 41954  97.3259 103.3630 0008695 184.4888 175.6274 15.25600214221031
FLOCK 3P-24             
1 41956U 17008J   21037.45251555  .00001219  00000-0  45870-4 0  9997
2 41956  97.3388 109.7441 0008319 161.9285 198.2253 15.29019979221450
FLOCK 3P-4              
1 41965U 17008T   21037.44954821  .00001473  00000-0  57929-4 0  9992
2 41965  97.3377 107.3423 0008129 174.7312 185.4014 15.27210130221200
FLOCK 3P-2              
1 41966U 17008U   21037.45326909  .00002066  00000-0  80156-4 0  9991
2 41966  97.3393 107.4567 0008050 171.7672 188.3701 15.27212820221122
FLOCK 3P-3              
1 41968U 17008W   21037.44766447  .00001410  00000-0  54877-4 0  9990
2 41968  97.3388 107.6865 0008102 171.4045 188.7335 15.27630480221224
FLOCK 3P-12             
1 41972U 17008AA  21037.43986622  .00001482  00000-0  58208-4 0  9994
2 41972  97.3394 107.4930 0007776 176.6361 183.4932 15.27251731221202
FLOCK 3P-11             
1 41975U 17008AD  21037.44755154  .00001458  00000-0  57352-4 0  9994
2 41975  97.3382 107.4453 0008038 175.1719 184.9599 15.27220243221091
FLOCK 3P-60             
1 41976U 17008AE  21037.15704074  .00001657  00000-0  64822-4 0  9999
2 41976  97.3402 107.3780 0007461 176.9236 183.2051 15.27218807220412
FLOCK 3P-58             
1 41977U 17008AF  21037.18322363  .00001505  00000-0  59153-4 0  9993
2 41977  97.3393 107.2357 0007773 177.3875 182.7406 15.27203749221240
FLOCK 3P-57             
1 41978U 17008AG  21037.49439952  .00001791  00000-0  69867-4 0  9991
2 41978  97.3388 107.5520 0007988 173.8229 186.3110 15.27198588221136
FLOCK 3P-70             
1 41980U 17008AJ  21037.43240823  .00001510  00000-0  59334-4 0  9992
2 41980  97.3426 108.0226 0007823 178.3199 181.8068 15.27192552221121
FLOCK 3P-86             
1 41985U 17008AP  21037.42265879  .00002547  00000-0  98002-4 0  9990
2 41985  97.3427 108.0364 0007317 178.5174 181.6088 15.27272136221119
FLOCK 3P-34             
1 41988U 17008AS  21037.49323040  .00001802  00000-0  70272-4 0  9997
2 41988  97.3405 107.6620 0007525 173.5845 186.5492 15.27210785220618
FLOCK 3P-33             
1 41990U 17008AU  21037.45488433  .00001057  00000-0  43039-4 0  9997
2 41990  97.3396 107.3783 0007430 177.0772 183.0511 15.26654878220595
LEMUR-2-JOBANPUTRA      
1 41991U 17008AV  21037.14456776  .00001561  00000-0  63773-4 0  9996
2 41991  97.3287 104.2778 0006975 185.6737 174.4423 15.25828252220419
LEMUR-2-SPIRE-MINIONS   
1 41992U 17008AW  21037.41278761  .00002002  00000-0  77405-4 0  9991
2 41992  97.3333 106.6389 0006901 178.6412 181.4848 15.27373070220578
LEMUR-2-SATCHMO         
1 41993U 17008AX  21037.11102889  .00001473  00000-0  59927-4 0  9996
2 41993  97.3292 104.6355 0006932 184.8470 175.2702 15.26073525220437
LEMUR-2-SMITA-SHARAD    
1 41994U 17008AY  21037.45457847  .00001956  00000-0  75756-4 0  9995
2 41994  97.3328 106.5195 0007019 176.9728 183.1555 15.27334228220576
LEMUR-2-RDEATON         
1 41995U 17008AZ  21037.45918517  .00001486  00000-0  60482-4 0  9990
2 41995  97.3301 105.1278 0007642 199.1252 160.9701 15.26029226221177
LEMUR-2-TACHIKOMA       
1 41996U 17008BA  21037.44205104  .00001760  00000-0  68859-4 0  9992
2 41996  97.3364 106.6947 0007420 195.2652 164.8364 15.27135925220465
LEMUR-2-NOGUECORREIG    
1 41997U 17008BB  21037.46822247  .00001982  00000-0  76487-4 0  9990
2 41997  97.3345 107.0206 0007525 193.7417 166.3618 15.27444649220584
LEMUR-2-MIA-GRACE       
1 41998U 17008BC  21037.41567068  .00001442  00000-0  58976-4 0  9997
2 41998  97.3296 104.8497 0007598 200.0834 160.0107 15.25915242220395
BGUSAT                  
1 41999U 17008BD  21037.11716057  .00002550  00000-0  93368-4 0  9994
2 41999  97.3407 108.6326 0007485 189.0400 171.0706 15.28920143220636
DIDO-2                  
1 42000U 17008BE  21037.21020710  .00001064  00000-0  45433-4 0  9992
2 42000  97.3264 103.5130 0007513 205.0917 154.9957 15.25012328220386
FLOCK 3P-49             
1 42001U 17008BF  21037.09974125  .00001764  00000-0  68472-4 0  9992
2 42001  97.3393 107.3877 0007325 194.0687 166.0349 15.27394053221089
FLOCK 3P-68             
1 42003U 17008BH  21037.14908746  .00001294  00000-0  51233-4 0  9991
2 42003  97.3386 107.2472 0007563 193.3724 166.7316 15.27207951220889
FLOCK 3P-61             
1 42009U 17008BP  21037.13867780  .00002073  00000-0  80422-4 0  9996
2 42009  97.3390 107.3000 0006998 196.4109 163.6904 15.27213308221210
FLOCK 3P-40             
1 42010U 17008BQ  21037.46171601  .00001593  00000-0  62442-4 0  9992
2 42010  97.3385 107.4966 0006931 198.5760 161.5227 15.27208342220521
FLOCK 3P-54             
1 42014U 17008BU  21037.25822619  .00001703  00000-0  66570-4 0  9994
2 42014  97.3398 107.4207 0006415 198.2312 161.8698 15.27206095221264
