OBJECT_NAME,OBJECT_ID,EPOCH,MEAN_MOTION,ECCENTRICITY,INCLINATION,RA_OF_ASC_NODE,ARG_OF_PERICENTER,MEAN_ANOMALY,EPHEMERIS_TYPE,CLASSIFICATION_TYPE,NORAD_CAT_ID,ELEMENT_SET_NO,REV_AT_EPOCH,BSTAR,MEAN_MOTION_DOT,MEAN_MOTION_DDOT
FLOCK 3P-51,2017-008E,2021-02-06T08:26:11.368608,15.27235282,.0007383,97.3383,107.4382,192.7024,167.4030,0,U,41952,999,22127,.71027E-4,.1824E-4,0
INS-1B,2017-008G,2021-02-06T10:41:29.083200,15.25600214,.0008695,97.3259,103.3630,184.4888,175.6274,0,U,41954,999,22103,.6519E-4,.1586E-4,0
FLOCK 3P-24,2017-008J,2021-02-06T10:51:37.343520,15.29019979,.0008319,97.3388,109.7441,161.9285,198.2253,0,U,41956,999,22145,.4587E-4,.1219E-4,0
FLOCK 3P-4,2017-008T,2021-02-06T10:47:20.965344,15.27210130,.0008129,97.3377,107.3423,174.7312,185.4014,0,U,41965,999,22120,.57929E-4,.1473E-4,0
FLOCK 3P-2,2017-008U,2021-02-06T10:52:42.449376,15.27212820,.000805,97.3393,107.4567,171.7672,188.3701,0,U,41966,999,22112,.80156E-4,.2066E-4,0
FLOCK 3P-3,2017-008W,2021-02-06T10:44:38.210208,15.27630480,.0008102,97.3388,107.6865,171.4045,188.7335,0,U,41968,999,22122,.54877E-4,.141E-4,0
FLOCK 3P-12,2017-008AA,2021-02-06T10:33:24.441408,15.27251731,.0007776,97.3394,107.4930,176.6361,183.4932,0,U,41972,999,22120,.58208E-4,.1482E-4,0
FLOCK 3P-11,2017-008AD,2021-02-06T10:44:28.453056,15.27220243,.0008038,97.3382,107.4453,175.1719,184.9599,0,U,41975,999,22109,.57352E-4,.1458E-4,0
FLOCK 3P-60,2017-008AE,2021-02-06T03:46:08.319936,15.27218807,.0007461,97.3402,107.3780,176.9236,183.2051,0,U,41976,999,22041,.64822E-4,.1657E-4,0
FLOCK 3P-58,2017-008AF,2021-02-06T04:23:50.521632,15.27203749,.0007773,97.3393,107.2357,177.3875,182.7406,0,U,41977,999,22124,.59153E-4,.1505E-4,0
FLOCK 3P-57,2017-008AG,2021-02-06T11:51:56.118528,15.27198588,.0007988,97.3388,107.5520,173.8229,186.3110,0,U,41978,999,22113,.69867E-4,.1791E-4,0
FLOCK 3P-70,2017-008AJ,2021-02-06T10:22:40.071072,15.27192552,.0007823,97.3426,108.0226,178.3199,181.8068,0,U,41980,999,22112,.59334E-4,.151E-4,0
FLOCK 3P-86,2017-008AP,2021-02-06T10:08:37.719456,15.27272136,.0007317,97.3427,108.0364,178.5174,181.6088,0,U,41985,999,22111,.98002E-4,.2547E-4,0
FLOCK 3P-34,2017-008AS,2021-02-06T11:50:15.106560,15.27210785,.0007525,97.3405,107.6620,173.5845,186.5492,0,U,41988,999,22061,.70272E-4,.1802E-4,0
FLOCK 3P-33,2017-008AU,2021-02-06T10:55:02.006112,15.26654878,.000743,97.3396,107.3783,177.0772,183.0511,0,U,41990,999,22059,.43039E-4,.1057E-4,0
LEMUR-2-JOBANPUTRA,2017-008AV,2021-02-06T03:28:10.654464,15.25828252,.0006975,97.3287,104.2778,185.6737,174.4423,0,U,41991,999,22041,.63773E-4,.1561E-4,0
LEMUR-2-SPIRE-MINIONS,2017-008AW,2021-02-06T09:54:24.849504,15.27373070,.0006901,97.3333,106.6389,178.6412,181.4848,0,U,41992,999,22057,.77405E-4,.2002E-4,0
LEMUR-2-SATCHMO,2017-008AX,2021-02-06T02:39:52.896096,15.26073525,.0006932,97.3292,104.6355,184.8470,175.2702,0,U,41993,999,22043,.59927E-4,.1473E-4,0
LEMUR-2-SMITA-SHARAD,2017-008AY,2021-02-06T10:54:35.579808,15.27334228,.0007019,97.3328,106.5195,176.9728,183.1555,0,U,41994,999,22057,.75756E-4,.1956E-4,0
LEMUR-2-RDEATON,2017-008AZ,2021-02-06T11:01:13.598688,15.26029226,.0007642,97.3301,105.1278,199.1252,160.9701,0,U,41995,999,22117,.60482E-4,.1486E-4,0
LEMUR-2-TACHIKOMA,2017-008BA,2021-02-06T10:36:33.209856,15.27135925,.000742,97.3364,106.6947,195.2652,164.8364,0,U,41996,999,22046,.68859E-4,.176E-4,0
LEMUR-2-NOGUECORREIG,2017-008BB,2021-02-06T11:14:14.421408,15.27444649,.0007525,97.3345,107.0206,193.7417,166.3618,0,U,41997,999,22058,.76487E-4,.1982E-4,0
LEMUR-2-MIA-GRACE,2017-008BC,2021-02-06T09:58:33.946752,15.25915242,.0007598,97.3296,104.8497,200.0834,160.0107,0,U,41998,999,22039,.58976E-4,.1442E-4,0
BGUSAT,2017-008BD,2021-02-06T02:48:42.673248,15.28920143,.0007485,97.3407,108.6326,189.0400,171.0706,0,U,41999,999,22063,.93368E-4,.255E-4,0
DIDO-2,2017-008BE,2021-02-06T05:02:41.893440,15.25012328,.0007513,97.3264,103.5130,205.0917,154.9957,0,U,42000,999,22038,.45433E-4,.1064E-4,0
FLOCK 3P-49,2017-008BF,2021-02-06T02:23:37.644000,15.27394053,.0007325,97.3393,107.3877,194.0687,166.0349,0,U,42001,999,22108,.68472E-4,.1764E-4,0
FLOCK 3P-68,2017-008BH,2021-02-06T03:34:41.156544,15.27207951,.0007563,97.3386,107.2472,193.3724,166.7316,0,U,42003,999,22088,.51233E-4,.1294E-4,0
FLOCK 3P-61,2017-008BP,2021-02-06T03:19:41.761920,15.27213308,.0006998,97.3390,107.3000,196.4109,163.6904,0,U,42009,999,22121,.80422E-4,.2073E-4,0
FLOCK 3P-40,2017-008BQ,2021-02-06T11:04:52.263264,15.27208342,.0006931,97.3385,107.4966,198.5760,161.5227,0,U,42010,999,22052,.62442E-4,.1593E-4,0
FLOCK 3P-54,2017-008BU,2021-02-06T06:11:50.742816,15.27206095,.0006415,97.3398,107.4207,198.2312,161.8698,0,U,42014,999,22126,.6657E-4,.1703E-4,0
